EUTELSAT 7 WEST A       
1 37816U 11051A   26065.43378139 -.00000065  00000+0  00000+0 0  9990
2 37816   0.0700  12.7016 0000987 225.6803  74.6073  1.00272194 52843
QUETZSAT 1              
1 37826U 11054A   26065.56630903 -.00000246  00000+0  00000+0 0  9999
2 37826   0.0489 292.9234 0002846  66.9972 291.2306  1.00280367 48843
INTELSAT 18 (IS-18)     
1 37834U 11056A   26065.75983655  .00000050  00000+0  00000+0 0  9998
2 37834   0.0363 264.2390 0001915  81.2133 272.5553  1.00274571 52787
EUTELSAT 16A            
1 37836U 11057A   26065.79866338  .00000101  00000+0  00000+0 0  9990
2 37836   0.0559 358.5523 0005476 349.1680 120.2957  1.00272520  6317
VIASAT-1                
1 37843U 11059A   26065.55876898 -.00000027  00000+0  00000+0 0  9994
2 37843   0.0195 188.3082 0002141 162.1343 259.8684  1.00271965 46294
ASIASAT 7               
1 37933U 11069A   26065.81643014 -.00000337  00000+0  00000+0 0  9990
2 37933   0.0083 169.2305 0001228 165.0865 229.6092  1.00274713 43831
BEIDOU-2 IGSO-5         
1 37948U 11073A   26063.54783174 -.00000153  00000+0  00000+0 0  9997
2 37948  47.8676 272.8369 0108588 221.1171 320.7210  1.00272598 52087
LUCH-5A                 
1 37951U 11074B   26065.82856353 -.00000049  00000+0  00000+0 0  9999
2 37951   8.4932  75.3103 0003865 248.4746 306.1672  1.00276045 52028
NIGCOMSAT 1R            
1 38014U 11077A   26065.80395007  .00000142  00000+0  00000+0 0  9998
2 38014   0.0612 250.8796 0002816  70.0099 175.5715  1.00268718 51938
WGS F4 (USA 233)        
1 38070U 12003A   26065.81305012 -.00000218  00000+0  00000+0 0  9993
2 38070   0.0096 156.3997 0000554 127.9368 261.2585  1.00273723 43129
SES-4                   
1 38087U 12007A   26065.43933632 -.00000173  00000+0  00000+0 0  9998
2 38087   0.0353  65.8553 0002193 272.1207 322.3456  1.00270086 51192
BEIDOU-2 G5             
1 38091U 12008A   26065.87846221  .00000054  00000+0  00000+0 0  9996
2 38091   3.3183  70.3001 0014143 255.5790 213.7869  1.00272389 51349
MUOS-1                  
1 38093U 12009A   26065.56162900 -.00000130  00000+0  00000+0 0  9996
2 38093   5.2657  47.1935 0057242 357.8122 221.4504  1.00273584 51416
INTELSAT 22 (IS-22)     
1 38098U 12011A   26065.59586249 -.00000062  00000+0  00000+0 0  9997
2 38098   0.0064 156.1408 0001661 209.4389  85.3453  1.00271339  6150
APSTAR-7                
1 38107U 12013A   26065.74003182 -.00000105  00000+0  00000+0 0  9995
2 38107   0.0089 165.1290 0002389 183.6339 158.5875  1.00271914 50781
YAHSAT 1B               
1 38245U 12016A   26065.44836288  .00000122  00000+0  00000+0 0  9997
2 38245   0.0885  91.6403 0003260 260.3305  21.2016  1.00273840 44575
AEHF-2 (USA 235)        
1 38254U 12019A   26065.79225003 -.00000137  00000+0  00000+0 0  9992
2 38254   6.4128  58.2304 0003141 277.3566  97.6324  1.00273233  5964
